sat05580
1 05580U 71093A   20046.77113735  .00000123  00000-0  24743-4 0  9994
2 05580  82.0436 145.7677 0528034 332.2723  25.1168 13.94506790425541
